ONEWEB-0153             
1 48044U 21025C   23297.31878371 -.00000214  00000+0 -62095-3 0  9994
2 48044  87.9010 152.6155 0001460  80.5596 279.5698 13.13467513126623
ONEWEB-0154             
1 48045U 21025D   23297.31667176 -.00000212  00000+0 -61557-3 0  9994
2 48045  87.9018 152.6276 0001571  76.5810 283.5494 13.13470963126580
ONEWEB-0116             
1 48046U 21025E   23297.51135975  .00000369  00000+0  97534-3 0  9999
2 48046  87.9015 152.5582 0002048  75.2489 284.8867 13.13467164126751
ONEWEB-0150             
1 48047U 21025F   23297.33148020 -.00000505  00000+0 -14189-2 0  9993
2 48047  87.9012 152.6186 0001567  85.4827 274.6481 13.13469899126626
ONEWEB-0107             
1 48048U 21025G   23297.33361323 -.00000286  00000+0 -81922-3 0  9993
2 48048  87.9015 152.6167 0001438  92.8325 267.2969 13.13470183126606
ONEWEB-0101             
1 48049U 21025H   23297.52617230  .00000301  00000+0  78830-3 0  9996
2 48049  87.9012 152.5872 0001454  77.4278 282.7014 13.13469389126609
ONEWEB-0113             
1 48050U 21025J   23297.57906630 -.00001450  00000+0 -40050-2 0  9998
2 48050  87.8950 152.5815 0001901  70.3511 289.7823 13.13479885126693
ONEWEB-0112             
1 48051U 21025K   23297.33783496 -.00000154  00000+0 -45777-3 0  9998
2 48051  87.9012 152.6138 0001669  83.0568 277.0751 13.13469572126677
